HULIANWANG DIGUI-49     
1 65106U 25168A   26061.93260466 -.00000035  00000+0  19153-3 0  9991
2 65106  50.0050 347.0595 0007396 145.9355 214.1993 13.29338368 28555
HULIANWANG DIGUI-50     
1 65107U 25168B   26061.92420389 -.00000051  00000+0  15666-3 0  9996
2 65107  50.0020 346.9593 0008349 131.9004 228.2581 13.29338930 28558
HULIANWANG DIGUI-51     
1 65108U 25168C   26061.91583903 -.00000058  00000+0  14275-3 0  9990
2 65108  50.0057 346.9848 0009701 131.8026 228.3677 13.29339185 28558
HULIANWANG DIGUI-52     
1 65109U 25168D   26061.90759745 -.00000053  00000+0  15290-3 0  9992
2 65109  50.0051 346.9244 0009599 144.8348 215.3160 13.29337876 28557
HULIANWANG DIGUI-53     
1 65110U 25168E   26061.89924136 -.00000057  00000+0  14521-3 0  9990
2 65110  50.0059 346.9027 0008389 134.4580 225.6979 13.29337817 28552
HULIANWANG DIGUI-54     
1 65111U 25168F   26061.94953886 -.00000055  00000+0  14951-3 0  9996
2 65111  50.0009 346.4138 0009977 139.8941 220.2669 13.29335038 28561
HULIANWANG DIGUI-55     
1 65112U 25168G   26061.96599489 -.00000059  00000+0  14091-3 0  9993
2 65112  50.0015 346.5075 0011257 135.7006 224.4769 13.29338582 28565
HULIANWANG DIGUI-56     
1 65113U 25168H   26061.95766022 -.00000064  00000+0  12847-3 0  9995
2 65113  50.0006 346.4486 0010986 157.7258 202.4093 13.29337942 28567
HULIANWANG DIGUI-57     
1 65114U 25168J   26061.94120905 -.00000058  00000+0  14172-3 0  9995
2 65114  50.0035 346.4175 0008731 148.2090 211.9311 13.29334794 28570
HULIANWANG DIGUI-58     
1 65164U 25174A   26061.89460801  .00000078  00000+0  14841-3 0  9997
2 65164  86.4932 287.9284 0001242  85.1542 274.9734 13.24420852 26724
HULIANWANG DIGUI-59     
1 65165U 25174B   26061.97770680  .00000066  00000+0  11985-3 0  9999
2 65165  86.4892 287.8308 0001226  84.4143 275.7131 13.24421024 26730
HULIANWANG DIGUI-60     
1 65166U 25174C   26061.98523480  .00000057  00000+0  98261-4 0  9998
2 65166  86.4924 287.8969 0001196  86.5233 273.6038 13.24421237 26738
HULIANWANG DIGUI-61     
1 65167U 25174D   26061.91729619  .00000049  00000+0  79651-4 0  9997
2 65167  86.4932 287.9423 0001150  85.0457 275.0808 13.24419760 26724
HULIANWANG DIGUI-62     
1 65168U 25174E   26061.92480701  .00000057  00000+0  97770-4 0  9996
2 65168  86.4874 287.8304 0001148  87.7829 272.3436 13.24421090 26722
HULIANWANG DIGUI-63     
1 65169U 25174F   26061.93234760  .00000061  00000+0  10861-3 0  9990
2 65169  86.4926 287.9361 0001173  85.4834 274.6435 13.24421440 26727
HULIANWANG DIGUI-64     
1 65170U 25174G   26061.93990458  .00000068  00000+0  12341-3 0  9997
2 65170  86.4885 287.8599 0001156  87.8281 272.2986 13.24421438 26720
