[{"OBJECT_NAME":"HULIANWANG DIGUI-49","OBJECT_ID":"2025-168A","EPOCH":"2026-03-02T22:22:57.042624","MEAN_MOTION":13.29338368,"ECCENTRICITY":0.00073968,"INCLINATION":50.005,"RA_OF_ASC_NODE":347.0595,"ARG_OF_PERICENTER":145.9355,"MEAN_ANOMALY":214.1993,"EPHEMERIS_TYPE":0,"CLASSIFICATION_TYPE":"U","NORAD_CAT_ID":65106,"ELEMENT_SET_NO":999,"REV_AT_EPOCH":2855,"BSTAR":0.00019153104,"MEAN_MOTION_DOT":-3.5e-7,"MEAN_MOTION_DDOT":0},{"OBJECT_NAME":"HULIANWANG DIGUI-50","OBJECT_ID":"2025-168B","EPOCH":"2026-03-02T22:10:51.216096","MEAN_MOTION":13.2933893,"ECCENTRICITY":0.00083497,"INCLINATION":50.002,"RA_OF_ASC_NODE":346.9593,"ARG_OF_PERICENTER":131.9004,"MEAN_ANOMALY":228.2581,"EPHEMERIS_TYPE":0,"CLASSIFICATION_TYPE":"U","NORAD_CAT_ID":65107,"ELEMENT_SET_NO":999,"REV_AT_EPOCH":2855,"BSTAR":0.00015666378,"MEAN_MOTION_DOT":-5.1e-7,"MEAN_MOTION_DDOT":0},{"OBJECT_NAME":"HULIANWANG DIGUI-51","OBJECT_ID":"2025-168C","EPOCH":"2026-03-02T21:58:48.492192","MEAN_MOTION":13.29339185,"ECCENTRICITY":0.00097011,"INCLINATION":50.0057,"RA_OF_ASC_NODE":346.9848,"ARG_OF_PERICENTER":131.8026,"MEAN_ANOMALY":228.3677,"EPHEMERIS_TYPE":0,"CLASSIFICATION_TYPE":"U","NORAD_CAT_ID":65108,"ELEMENT_SET_NO":999,"REV_AT_EPOCH":2855,"BSTAR":0.00014275169,"MEAN_MOTION_DOT":-5.8e-7,"MEAN_MOTION_DDOT":0},{"OBJECT_NAME":"HULIANWANG DIGUI-52","OBJECT_ID":"2025-168D","EPOCH":"2026-03-02T21:46:56.419680","MEAN_MOTION":13.29337876,"ECCENTRICITY":0.0009599,"INCLINATION":50.0051,"RA_OF_ASC_NODE":346.9244,"ARG_OF_PERICENTER":144.8348,"MEAN_ANOMALY":215.316,"EPHEMERIS_TYPE":0,"CLASSIFICATION_TYPE":"U","NORAD_CAT_ID":65109,"ELEMENT_SET_NO":999,"REV_AT_EPOCH":2855,"BSTAR":0.00015289874,"MEAN_MOTION_DOT":-5.3e-7,"MEAN_MOTION_DDOT":0},{"OBJECT_NAME":"HULIANWANG DIGUI-53","OBJECT_ID":"2025-168E","EPOCH":"2026-03-02T21:34:54.453504","MEAN_MOTION":13.29337817,"ECCENTRICITY":0.00083896,"INCLINATION":50.0059,"RA_OF_ASC_NODE":346.9027,"ARG_OF_PERICENTER":134.458,"MEAN_ANOMALY":225.6979,"EPHEMERIS_TYPE":0,"CLASSIFICATION_TYPE":"U","NORAD_CAT_ID":65110,"ELEMENT_SET_NO":999,"REV_AT_EPOCH":2855,"BSTAR":0.00014521452,"MEAN_MOTION_DOT":-5.7e-7,"MEAN_MOTION_DDOT":0},{"OBJECT_NAME":"HULIANWANG DIGUI-54","OBJECT_ID":"2025-168F","EPOCH":"2026-03-02T22:47:20.157504","MEAN_MOTION":13.29335038,"ECCENTRICITY":0.0009977,"INCLINATION":50.0009,"RA_OF_ASC_NODE":346.4138,"ARG_OF_PERICENTER":139.8941,"MEAN_ANOMALY":220.2669,"EPHEMERIS_TYPE":0,"CLASSIFICATION_TYPE":"U","NORAD_CAT_ID":65111,"ELEMENT_SET_NO":999,"REV_AT_EPOCH":2856,"BSTAR":0.00014951005,"MEAN_MOTION_DOT":-5.5e-7,"MEAN_MOTION_DDOT":0},{"OBJECT_NAME":"HULIANWANG DIGUI-55","OBJECT_ID":"2025-168G","EPOCH":"2026-03-02T23:11:01.958496","MEAN_MOTION":13.29338582,"ECCENTRICITY":0.00112578,"INCLINATION":50.0015,"RA_OF_ASC_NODE":346.5075,"ARG_OF_PERICENTER":135.7006,"MEAN_ANOMALY":224.4769,"EPHEMERIS_TYPE":0,"CLASSIFICATION_TYPE":"U","NORAD_CAT_ID":65112,"ELEMENT_SET_NO":999,"REV_AT_EPOCH":2856,"BSTAR":0.00014091409,"MEAN_MOTION_DOT":-5.9e-7,"MEAN_MOTION_DDOT":0},{"OBJECT_NAME":"HULIANWANG DIGUI-56","OBJECT_ID":"2025-168H","EPOCH":"2026-03-02T22:59:01.843008","MEAN_MOTION":13.29337942,"ECCENTRICITY":0.00109869,"INCLINATION":50.0006,"RA_OF_ASC_NODE":346.4486,"ARG_OF_PERICENTER":157.7258,"MEAN_ANOMALY":202.4093,"EPHEMERIS_TYPE":0,"CLASSIFICATION_TYPE":"U","NORAD_CAT_ID":65113,"ELEMENT_SET_NO":999,"REV_AT_EPOCH":2856,"BSTAR":0.00012846504,"MEAN_MOTION_DOT":-6.4e-7,"MEAN_MOTION_DDOT":0},{"OBJECT_NAME":"HULIANWANG DIGUI-57","OBJECT_ID":"2025-168J","EPOCH":"2026-03-02T22:35:20.461920","MEAN_MOTION":13.29334794,"ECCENTRICITY":0.00087319,"INCLINATION":50.0035,"RA_OF_ASC_NODE":346.4175,"ARG_OF_PERICENTER":148.209,"MEAN_ANOMALY":211.9311,"EPHEMERIS_TYPE":0,"CLASSIFICATION_TYPE":"U","NORAD_CAT_ID":65114,"ELEMENT_SET_NO":999,"REV_AT_EPOCH":2857,"BSTAR":0.00014172322,"MEAN_MOTION_DOT":-5.8e-7,"MEAN_MOTION_DDOT":0},{"OBJECT_NAME":"HULIANWANG DIGUI-58","OBJECT_ID":"2025-174A","EPOCH":"2026-03-02T21:28:14.132064","MEAN_MOTION":13.24420852,"ECCENTRICITY":0.0001242,"INCLINATION":86.4932,"RA_OF_ASC_NODE":287.9284,"ARG_OF_PERICENTER":85.1542,"MEAN_ANOMALY":274.9734,"EPHEMERIS_TYPE":0,"CLASSIFICATION_TYPE":"U","NORAD_CAT_ID":65164,"ELEMENT_SET_NO":999,"REV_AT_EPOCH":2672,"BSTAR":0.00014841021,"MEAN_MOTION_DOT":7.8e-7,"MEAN_MOTION_DDOT":0},{"OBJECT_NAME":"HULIANWANG DIGUI-59","OBJECT_ID":"2025-174B","EPOCH":"2026-03-02T23:27:53.867520","MEAN_MOTION":13.24421024,"ECCENTRICITY":0.0001226,"INCLINATION":86.4892,"RA_OF_ASC_NODE":287.8308,"ARG_OF_PERICENTER":84.4143,"MEAN_ANOMALY":275.7131,"EPHEMERIS_TYPE":0,"CLASSIFICATION_TYPE":"U","NORAD_CAT_ID":65165,"ELEMENT_SET_NO":999,"REV_AT_EPOCH":2673,"BSTAR":0.00011984699,"MEAN_MOTION_DOT":6.6e-7,"MEAN_MOTION_DDOT":0},{"OBJECT_NAME":"HULIANWANG DIGUI-60","OBJECT_ID":"2025-174C","EPOCH":"2026-03-02T23:38:44.286720","MEAN_MOTION":13.24421237,"ECCENTRICITY":0.00011965,"INCLINATION":86.4924,"RA_OF_ASC_NODE":287.8969,"ARG_OF_PERICENTER":86.5233,"MEAN_ANOMALY":273.6038,"EPHEMERIS_TYPE":0,"CLASSIFICATION_TYPE":"U","NORAD_CAT_ID":65166,"ELEMENT_SET_NO":999,"REV_AT_EPOCH":2673,"BSTAR":9.8261168e-5,"MEAN_MOTION_DOT":5.7e-7,"MEAN_MOTION_DDOT":0},{"OBJECT_NAME":"HULIANWANG DIGUI-61","OBJECT_ID":"2025-174D","EPOCH":"2026-03-02T22:00:54.390816","MEAN_MOTION":13.2441976,"ECCENTRICITY":0.00011501,"INCLINATION":86.4932,"RA_OF_ASC_NODE":287.9423,"ARG_OF_PERICENTER":85.0457,"MEAN_ANOMALY":275.0808,"EPHEMERIS_TYPE":0,"CLASSIFICATION_TYPE":"U","NORAD_CAT_ID":65167,"ELEMENT_SET_NO":999,"REV_AT_EPOCH":2672,"BSTAR":7.9651411e-5,"MEAN_MOTION_DOT":4.9e-7,"MEAN_MOTION_DDOT":0},{"OBJECT_NAME":"HULIANWANG DIGUI-62","OBJECT_ID":"2025-174E","EPOCH":"2026-03-02T22:11:43.325664","MEAN_MOTION":13.2442109,"ECCENTRICITY":0.0001148,"INCLINATION":86.4874,"RA_OF_ASC_NODE":287.8304,"ARG_OF_PERICENTER":87.7829,"MEAN_ANOMALY":272.3436,"EPHEMERIS_TYPE":0,"CLASSIFICATION_TYPE":"U","NORAD_CAT_ID":65168,"ELEMENT_SET_NO":999,"REV_AT_EPOCH":2672,"BSTAR":9.7770422e-5,"MEAN_MOTION_DOT":5.7e-7,"MEAN_MOTION_DDOT":0},{"OBJECT_NAME":"HULIANWANG DIGUI-63","OBJECT_ID":"2025-174F","EPOCH":"2026-03-02T22:22:34.832640","MEAN_MOTION":13.2442144,"ECCENTRICITY":0.00011739,"INCLINATION":86.4926,"RA_OF_ASC_NODE":287.9361,"ARG_OF_PERICENTER":85.4834,"MEAN_ANOMALY":274.6435,"EPHEMERIS_TYPE":0,"CLASSIFICATION_TYPE":"U","NORAD_CAT_ID":65169,"ELEMENT_SET_NO":999,"REV_AT_EPOCH":2672,"BSTAR":0.00010860531,"MEAN_MOTION_DOT":6.1e-7,"MEAN_MOTION_DDOT":0},{"OBJECT_NAME":"HULIANWANG DIGUI-64","OBJECT_ID":"2025-174G","EPOCH":"2026-03-02T22:33:27.755712","MEAN_MOTION":13.24421438,"ECCENTRICITY":0.00011567,"INCLINATION":86.4885,"RA_OF_ASC_NODE":287.8599,"ARG_OF_PERICENTER":87.8281,"MEAN_ANOMALY":272.2986,"EPHEMERIS_TYPE":0,"CLASSIFICATION_TYPE":"U","NORAD_CAT_ID":65170,"ELEMENT_SET_NO":999,"REV_AT_EPOCH":2672,"BSTAR":0.00012340549,"MEAN_MOTION_DOT":6.8e-7,"MEAN_MOTION_DDOT":0}]
